start=new Date('2023-03-24T00:00:00.000Z').valueOf();
sats=[{"CENTER_NAME":"EARTH","RCS_SIZE":"LARGE","MEAN_MOTION_DOT":"0.00002331","EPHEMERIS_TYPE":"0","TLE_LINE1":"1 54857U 22177AP  23082.83372713  .00002331  00000-0  18751-3 0  9991","SEMIMAJOR_AXIS":"6937.194","REV_AT_EPOCH":"1436","CLASSIFICATION_TYPE":"U","MEAN_MOTION":"15.02543481","PERIOD":"95.837","TIME_SYSTEM":"UTC","OBJECT_NAME":"STARLINK-5078","BSTAR":"0.00018751000000","DECAY_DATE":null,"ECCENTRICITY":"0.00013840","OBJECT_TYPE":"PAYLOAD","TLE_LINE2":"2 54857  43.0023 239.0301 0001384 269.7285  90.3399 15.02543481 14366","COUNTRY_CODE":"US","MEAN_ELEMENT_THEORY":"SGP4","MEAN_ANOMALY":"90.3399","EPOCH":"2023-03-23T20:00:34.024032","REF_FRAME":"TEME","SITE":"AFETR","FILE":"3868816","APOAPSIS":"560.019","OBJECT_ID":"2022-177AP","MEAN_MOTION_DDOT":"0.0000000000000","INCLINATION":"43.0023","RA_OF_ASC_NODE":"239.0301","NORAD_CAT_ID":"54857","LAUNCH_DATE":"2022-12-28","ELEMENT_SET_NO":"999","ARG_OF_PERICENTER":"269.7285","PERIAPSIS":"558.098","GP_ID":"228741767"},{"CENTER_NAME":"EARTH","EPHEMERIS_TYPE":"0","MEAN_MOTION_DOT":"0.00001058","RCS_SIZE":"LARGE","TLE_LINE1":"1 54858U 22177AQ  23082.88688267  .00001058  00000-0  93367-4 0  9993","SEMIMAJOR_AXIS":"6937.176","REV_AT_EPOCH":"1437","CLASSIFICATION_TYPE":"U","MEAN_MOTION":"15.02549039","TIME_SYSTEM":"UTC","PERIOD":"95.837","DECAY_DATE":null,"OBJECT_NAME":"STARLINK-5407","BSTAR":"0.00009336700000","ECCENTRICITY":"0.00015950","TLE_LINE2":"2 54858  43.0017 238.5680 0001595 262.0212  98.0449 15.02549039 14371","OBJECT_TYPE":"PAYLOAD","MEAN_ELEMENT_THEORY":"SGP4","MEAN_ANOMALY":"98.0449","COUNTRY_CODE":"US","REF_FRAME":"TEME","EPOCH":"2023-03-23T21:17:06.662688","INCLINATION":"43.0017","MEAN_MOTION_DDOT":"0.0000000000000","FILE":"3868816","OBJECT_ID":"2022-177AQ","APOAPSIS":"560.148","SITE":"AFETR","NORAD_CAT_ID":"54858","RA_OF_ASC_NODE":"238.5680","LAUNCH_DATE":"2022-12-28","GP_ID":"228742519","PERIAPSIS":"557.935","ARG_OF_PERICENTER":"262.0212","ELEMENT_SET_NO":"999"},{"ECCENTRICITY":"0.00010540","OBJECT_TYPE":"PAYLOAD","TLE_LINE2":"2 54859  43.0021 238.5091 0001054 262.8205  97.2518 15.02547977 14370","COUNTRY_CODE":"US","MEAN_ELEMENT_THEORY":"SGP4","MEAN_ANOMALY":"97.2518","EPOCH":"2023-03-23T21:05:55.638816","REF_FRAME":"TEME","SITE":"AFETR","OBJECT_ID":"2022-177AR","FILE":"3868816","APOAPSIS":"559.776","MEAN_MOTION_DDOT":"0.0000000000000","INCLINATION":"43.0021","RA_OF_ASC_NODE":"238.5091","NORAD_CAT_ID":"54859","LAUNCH_DATE":"2022-12-28","ELEMENT_SET_NO":"999","ARG_OF_PERICENTER":"262.8205","PERIAPSIS":"558.313","GP_ID":"228742748","CENTER_NAME":"EARTH","RCS_SIZE":"LARGE","EPHEMERIS_TYPE":"0","MEAN_MOTION_DOT":"0.00001697","SEMIMAJOR_AXIS":"6937.180","TLE_LINE1":"1 54859U 22177AR  23082.87911619  .00001697  00000-0  14065-3 0  9999","REV_AT_EPOCH":"1437","CLASSIFICATION_TYPE":"U","MEAN_MOTION":"15.02547977","PERIOD":"95.837","TIME_SYSTEM":"UTC","BSTAR":"0.00014065000000","OBJECT_NAME":"STARLINK-5409","DECAY_DATE":null},{"MEAN_ELEMENT_THEORY":"SGP4","MEAN_ANOMALY":"102.1795","COUNTRY_CODE":"US","REF_FRAME":"TEME","EPOCH":"2023-03-23T20:57:56.110176","ECCENTRICITY":"0.00013910","TLE_LINE2":"2 54860  43.0025 238.4659 0001391 257.8891 102.1795 15.02548027 14374","OBJECT_TYPE":"PAYLOAD","LAUNCH_DATE":"2022-12-28","GP_ID":"228742017","PERIAPSIS":"558.080","ARG_OF_PERICENTER":"257.8891","ELEMENT_SET_NO":"999","INCLINATION":"43.0025","MEAN_MOTION_DDOT":"0.0000000000000","OBJECT_ID":"2022-177AS","FILE":"3868816","APOAPSIS":"560.009","SITE":"AFETR","NORAD_CAT_ID":"54860","RA_OF_ASC_NODE":"238.4659","SEMIMAJOR_AXIS":"6937.180","TLE_LINE1":"1 54860U 22177AS  23082.87356609  .00000373  00000-0  42650-4 0  9995","REV_AT_EPOCH":"1437","CENTER_NAME":"EARTH","EPHEMERIS_TYPE":"0","MEAN_MOTION_DOT":"0.00000373","RCS_SIZE":"LARGE","TIME_SYSTEM":"UTC","PERIOD":"95.837","DECAY_DATE":null,"BSTAR":"0.00004265000000","OBJECT_NAME":"STARLINK-5406","CLASSIFICATION_TYPE":"U","MEAN_MOTION":"15.02548027"},{"NORAD_CAT_ID":"54861","RA_OF_ASC_NODE":"238.5846","FILE":"3868816","OBJECT_ID":"2022-177AT","APOAPSIS":"559.917","SITE":"AFETR","INCLINATION":"43.0023","MEAN_MOTION_DDOT":"0.0000000000000","ARG_OF_PERICENTER":"268.7219","ELEMENT_SET_NO":"999","GP_ID":"228742267","PERIAPSIS":"558.162","LAUNCH_DATE":"2022-12-28","TLE_LINE2":"2 54861  43.0023 238.5846 0001265 268.7219  91.3478 15.02549671 14370","OBJECT_TYPE":"PAYLOAD","ECCENTRICITY":"0.00012650","REF_FRAME":"TEME","EPOCH":"2023-03-23T21:20:18.652992","COUNTRY_CODE":"US","MEAN_ELEMENT_THEORY":"SGP4","MEAN_ANOMALY":"91.3478","MEAN_MOTION":"15.02549671","CLASSIFICATION_TYPE":"U","DECAY_DATE":null,"OBJECT_NAME":"STARLINK-5400","BSTAR":"0.00012969000000","PERIOD":"95.837","TIME_SYSTEM":"UTC","RCS_SIZE":"LARGE","MEAN_MOTION_DOT":"0.00001549","EPHEMERIS_TYPE":"0","CENTER_NAME":"EARTH","REV_AT_EPOCH":"1437","SEMIMAJOR_AXIS":"6937.174","TLE_LINE1":"1 54861U 22177AT  23082.88910478  .00001549  00000-0  12969-3 0  9992"},{"DECAY_DATE":null,"OBJECT_NAME":"STARLINK-5403","BSTAR":"-0.00001961300000","TIME_SYSTEM":"UTC","PERIOD":"95.837","MEAN_MOTION":"15.02551290","CLASSIFICATION_TYPE":"U","REV_AT_EPOCH":"1436","TLE_LINE1":"1 54862U 22177AU  23082.84705211 -.00000469  00000-0 -19613-4 0  9992","SEMIMAJOR_AXIS":"6937.169","MEAN_MOTION_DOT":"-0.00000469","EPHEMERIS_TYPE":"0","RCS_SIZE":"LARGE","CENTER_NAME":"EARTH","GP_ID":"228743019","PERIAPSIS":"558.171","ARG_OF_PERICENTER":"282.2221","ELEMENT_SET_NO":"999","LAUNCH_DATE":"2022-12-28","NORAD_CAT_ID":"54862","RA_OF_ASC_NODE":"239.1417","INCLINATION":"43.0031","MEAN_MOTION_DDOT":"0.0000000000000","FILE":"3868816","OBJECT_ID":"2022-177AU","APOAPSIS":"559.898","SITE":"AFETR","REF_FRAME":"TEME","EPOCH":"2023-03-23T20:19:45.302304","MEAN_ANOMALY":"77.8482","MEAN_ELEMENT_THEORY":"SGP4","COUNTRY_CODE":"US","TLE_LINE2":"2 54862  43.0031 239.1417 0001245 282.2221  77.8482 15.02551290 14366","OBJECT_TYPE":"PAYLOAD","ECCENTRICITY":"0.00012450"},{"TIME_SYSTEM":"UTC","PERIOD":"95.837","DECAY_DATE":null,"BSTAR":"0.00006909300000","OBJECT_NAME":"STARLINK-5405","CLASSIFICATION_TYPE":"U","MEAN_MOTION":"15.02548685","SEMIMAJOR_AXIS":"6937.177","TLE_LINE1":"1 54863U 22177AV  23082.88133468  .00000730  00000-0  69093-4 0  9992","REV_AT_EPOCH":"1437","CENTER_NAME":"EARTH","EPHEMERIS_TYPE":"0","MEAN_MOTION_DOT":"0.00000730","RCS_SIZE":"LARGE","LAUNCH_DATE":"2022-12-28","GP_ID":"228743248","PERIAPSIS":"558.101","ARG_OF_PERICENTER":"269.4546","ELEMENT_SET_NO":"999","INCLINATION":"43.0023","MEAN_MOTION_DDOT":"0.0000000000000","FILE":"3868816","OBJECT_ID":"2022-177AV","APOAPSIS":"559.984","SITE":"AFETR","RA_OF_ASC_NODE":"238.5243","NORAD_CAT_ID":"54863","MEAN_ANOMALY":"90.6141","MEAN_ELEMENT_THEORY":"SGP4","COUNTRY_CODE":"US","REF_FRAME":"TEME","EPOCH":"2023-03-23T21:09:07.316352","ECCENTRICITY":"0.00013570","TLE_LINE2":"2 54863  43.0023 238.5243 0001357 269.4546  90.6141 15.02548685 14379","OBJECT_TYPE":"PAYLOAD"},{"GP_ID":"228741518","PERIAPSIS":"558.168","ARG_OF_PERICENTER":"261.4896","ELEMENT_SET_NO":"999","LAUNCH_DATE":"2022-12-28","RA_OF_ASC_NODE":"238.4255","NORAD_CAT_ID":"54864","INCLINATION":"43.0027","MEAN_MOTION_DDOT":"0.0000000000000","OBJECT_ID":"2022-177AW","FILE":"3868816","APOAPSIS":"559.944","SITE":"AFETR","REF_FRAME":"TEME","EPOCH":"2023-03-23T20:49:56.871840","MEAN_ANOMALY":"98.5801","MEAN_ELEMENT_THEORY":"SGP4","COUNTRY_CODE":"US","TLE_LINE2":"2 54864  43.0027 238.4255 0001280 261.4896  98.5801 15.02544416 14379","OBJECT_TYPE":"PAYLOAD","ECCENTRICITY":"0.00012800","DECAY_DATE":null,"BSTAR":"0.00010858000000","OBJECT_NAME":"STARLINK-5359","TIME_SYSTEM":"UTC","PERIOD":"95.837","MEAN_MOTION":"15.02544416","CLASSIFICATION_TYPE":"U","REV_AT_EPOCH":"1437","SEMIMAJOR_AXIS":"6937.191","TLE_LINE1":"1 54864U 22177AW  23082.86801935  .00001264  00000-0  10858-3 0  9999","EPHEMERIS_TYPE":"0","MEAN_MOTION_DOT":"0.00001264","RCS_SIZE":"LARGE","CENTER_NAME":"EARTH"},{"NORAD_CAT_ID":"54865","RA_OF_ASC_NODE":"238.5502","FILE":"3868816","APOAPSIS":"560.251","OBJECT_ID":"2022-177AX","SITE":"AFETR","INCLINATION":"43.0015","MEAN_MOTION_DDOT":"0.0000000000000","ARG_OF_PERICENTER":"269.9340","ELEMENT_SET_NO":"999","GP_ID":"228741768","PERIAPSIS":"557.807","LAUNCH_DATE":"2022-12-28","TLE_LINE2":"2 54865  43.0015 238.5502 0001762 269.9340  90.1300 15.02553044 14374","OBJECT_TYPE":"PAYLOAD","ECCENTRICITY":"0.00017620","REF_FRAME":"TEME","EPOCH":"2023-03-23T21:13:54.735456","COUNTRY_CODE":"US","MEAN_ELEMENT_THEORY":"SGP4","MEAN_ANOMALY":"90.1300","MEAN_MOTION":"15.02553044","CLASSIFICATION_TYPE":"U","DECAY_DATE":null,"BSTAR":"0.00014038000000","OBJECT_NAME":"STARLINK-5411","PERIOD":"95.837","TIME_SYSTEM":"UTC","RCS_SIZE":"LARGE","MEAN_MOTION_DOT":"0.00001694","EPHEMERIS_TYPE":"0","CENTER_NAME":"EARTH","REV_AT_EPOCH":"1437","SEMIMAJOR_AXIS":"6937.164","TLE_LINE1":"1 54865U 22177AX  23082.88466129  .00001694  00000-0  14038-3 0  9995"},{"PERIOD":"95.837","TIME_SYSTEM":"UTC","DECAY_DATE":null,"OBJECT_NAME":"STARLINK-5398","BSTAR":"0.00010061000000","CLASSIFICATION_TYPE":"U","MEAN_MOTION":"15.02546381","TLE_LINE1":"1 54866U 22177AY  23082.86024706  .00001156  00000-0  10061-3 0  9990","SEMIMAJOR_AXIS":"6937.185","REV_AT_EPOCH":"1437","CENTER_NAME":"EARTH","RCS_SIZE":"LARGE","MEAN_MOTION_DOT":"0.00001156","EPHEMERIS_TYPE":"0","LAUNCH_DATE":"2022-12-28","ARG_OF_PERICENTER":"270.5101","ELEMENT_SET_NO":"999","GP_ID":"228742520","PERIAPSIS":"557.862","FILE":"3868816","OBJECT_ID":"2022-177AY","APOAPSIS":"560.237","SITE":"AFETR","INCLINATION":"43.0023","MEAN_MOTION_DDOT":"0.0000000000000","RA_OF_ASC_NODE":"238.3688","NORAD_CAT_ID":"54866","COUNTRY_CODE":"US","MEAN_ANOMALY":"89.5545","MEAN_ELEMENT_THEORY":"SGP4","REF_FRAME":"TEME","EPOCH":"2023-03-23T20:38:45.345984","ECCENTRICITY":"0.00017120","TLE_LINE2":"2 54866  43.0023 238.3688 0001712 270.5101  89.5545 15.02546381 14374","OBJECT_TYPE":"PAYLOAD"}];
